*******************************************************************************
JPL/HORIZONS                294 Felicia (A890 NA)          2023-Sep-04 11:05:30
Rec #:     294 (+COV) Soln.date: 2023-Aug-23_04:09:35   # obs: 6720 (1906-2023)
 
IAU76/J2000 helio. ecliptic osc. elements (au, days, deg., period=Julian yrs):
 
  EPOCH=  2457454.5 ! 2016-Mar-07.00 (TDB)         Residual RMS= .25274
   EC= .237562948061068    QR= 2.404385410618787   TP= 2458424.4861778254
   OM= 136.0211759751316   W=  185.2779067417194   IN= 6.288454667777068
   A= 3.153552682813962    MA= 189.2858643184397   ADIST= 3.902719955009137
   PER= 5.60026            N= .175996462           ANGMOM= .029673388
   DAN= 3.89757            DDN= 2.40634            L= 321.2675035
   B= -.5773029            MOID= 1.38959002        TP= 2018-Nov-01.9861778254
 
Asteroid physical parameters (km, seconds, rotational period in hours):
   GM= n.a.                RAD= 25.9325            ROTPER= 10.4227
   H= 10.35                G= .150                 B-V= n.a.
                           ALBEDO= .095            STYP= n.a.

ASTEROID comments: 
1: soln ref.= JPL#64, OCC=0
2: source=ORB
*******************************************************************************


*******************************************************************************
Ephemeris / API_USER Mon Sep  4 11:05:30 2023 Pasadena, USA      / Horizons
*******************************************************************************
Target body name: 294 Felicia (A890 NA)           {source: JPL#64}
Center body name: Solar System Barycenter (0)     {source: DE441}
Center-site name: BODY CENTER
*******************************************************************************
Start time      : A.D. 2023-Aug-12 00:00:00.0000 TDB
Stop  time      : A.D. 2023-Aug-13 00:00:00.0000 TDB
Step-size       : 2880 minutes
*******************************************************************************
Center geodetic : 0.0, 0.0, 0.0                   {E-lon(deg),Lat(deg),Alt(km)}
Center cylindric: 0.0, 0.0, 0.0                   {E-lon(deg),Dxy(km),Dz(km)}
Center radii    : (undefined)
Small perturbers: Yes                             {source: SB441-N16}
Output units    : KM-S
Calendar mode   : Mixed Julian/Gregorian
Output type     : GEOMETRIC cartesian states
Output format   : 2 (position and velocity)
Reference frame : Ecliptic of J2000.0
*******************************************************************************
Initial IAU76/J2000 heliocentric ecliptic osculating elements (au, days, deg.):
  EPOCH=  2457454.5 ! 2016-Mar-07.00 (TDB)         Residual RMS= .25274        
   EC= .237562948061068    QR= 2.404385410618787   TP= 2458424.4861778254      
   OM= 136.0211759751316   W=  185.2779067417194   IN= 6.288454667777068       
  Equivalent ICRF heliocentric cartesian coordinates (au, au/d):
   X=-3.271758534620460E+00  Y= 1.906854439310780E+00  Z= 9.168642998468075E-01
  VX=-3.890534527138400E-03 VY=-6.287950232941961E-03 VZ=-1.839810652176912E-03
Asteroid physical parameters (km, seconds, rotational period in hours):        
   GM= n.a.                RAD= 25.9325            ROTPER= 10.4227             
   H= 10.35                G= .150                 B-V= n.a.                   
                           ALBEDO= .095            STYP= n.a.                  
*******************************************************************************
JDTDB
   X     Y     Z
   VX    VY    VZ
*******************************************************************************
$$SOE
2460168.500000000 = A.D. 2023-Aug-12 00:00:00.0000 TDB 
 X =-2.018036416620082E+08 Y =-3.771423764209898E+08 Z = 4.501117746305327E+07
 VX= 1.764993146996730E+01 VY=-5.010009815890311E+00 VZ=-9.604282958880552E-01
$$EOE
*******************************************************************************
 
TIME

  Barycentric Dynamical Time ("TDB" or T_eph) output was requested. This
continuous coordinate time is equivalent to the relativistic proper time
of a clock at rest in a reference frame co-moving with the solar system
barycenter but outside the system's gravity well. It is the independent
variable in the solar system relativistic equations of motion.

  TDB runs at a uniform rate of one SI second per second and is independent
of irregularities in Earth's rotation.
 
CALENDAR SYSTEM

  Mixed calendar mode was active such that calendar dates after AD 1582-Oct-15
(if any) are in the modern Gregorian system. Dates prior to 1582-Oct-5 (if any)
are in the Julian calendar system, which is automatically extended for dates
prior to its adoption on 45-Jan-1 BC.  The Julian calendar is useful for
matching historical dates. The Gregorian calendar more accurately corresponds
to the Earth's orbital motion and seasons. A "Gregorian-only" calendar mode is
available if such physical events are the primary interest.

REFERENCE FRAME AND COORDINATES

  Ecliptic at the standard reference epoch

    Reference epoch: J2000.0
    X-Y plane: adopted Earth orbital plane at the reference epoch
               Note: IAU76 obliquity of 84381.448 arcseconds wrt ICRF X-Y plane
    X-axis   : ICRF
    Z-axis   : perpendicular to the X-Y plane in the directional (+ or -) sense
               of Earth's north pole at the reference epoch.

  Symbol meaning:

    JDTDB    Julian Day Number, Barycentric Dynamical Time
      X      X-component of position vector (km)
      Y      Y-component of position vector (km)
      Z      Z-component of position vector (km)
      VX     X-component of velocity vector (km/sec)                           
      VY     Y-component of velocity vector (km/sec)                           
      VZ     Z-component of velocity vector (km/sec)                           

ABERRATIONS AND CORRECTIONS

 Geometric state vectors have NO corrections or aberrations applied.

Computations by ...

    Solar System Dynamics Group, Horizons On-Line Ephemeris System
    4800 Oak Grove Drive, Jet Propulsion Laboratory
    Pasadena, CA  91109   USA

    General site: https://ssd.jpl.nasa.gov/
    Mailing list: https://ssd.jpl.nasa.gov/email_list.html
    System news : https://ssd.jpl.nasa.gov/horizons/news.html
    User Guide  : https://ssd.jpl.nasa.gov/horizons/manual.html
    Connect     : browser        https://ssd.jpl.nasa.gov/horizons/app.html#/x
                  API            https://ssd-api.jpl.nasa.gov/doc/horizons.html
                  command-line   telnet ssd.jpl.nasa.gov 6775
                  e-mail/batch   https://ssd.jpl.nasa.gov/ftp/ssd/hrzn_batch.txt
                  scripts        https://ssd.jpl.nasa.gov/ftp/ssd/SCRIPTS
    Author      : Jon.D.Giorgini@jpl.nasa.gov
*******************************************************************************
